[{"OBJECT_NAME":"KIKU-2 (ETS-II)","OBJECT_ID":"1977-014A","EPOCH":"2026-03-28T20:43:16.444128","MEAN_MOTION":1.00024937,"ECCENTRICITY":0.0001391,"INCLINATION":5.4759,"RA_OF_ASC_NODE":284.0621,"ARG_OF_PERICENTER":75.9033,"MEAN_ANOMALY":305.7265,"EPHEMERIS_TYPE":0,"CLASSIFICATION_TYPE":"U","NORAD_CAT_ID":9852,"ELEMENT_SET_NO":999,"REV_AT_EPOCH":12642,"BSTAR":0,"MEAN_MOTION_DOT":-1.15e-6,"MEAN_MOTION_DDOT":0},{"OBJECT_NAME":"TITAN 3C TRANSTAGE R/B","OBJECT_ID":"1977-007C","EPOCH":"2026-03-28T14:32:56.691744","MEAN_MOTION":1.00312682,"ECCENTRICITY":0.0017177,"INCLINATION":3.6011,"RA_OF_ASC_NODE":269.296,"ARG_OF_PERICENTER":46.0359,"MEAN_ANOMALY":313.7105,"EPHEMERIS_TYPE":0,"CLASSIFICATION_TYPE":"U","NORAD_CAT_ID":9855,"ELEMENT_SET_NO":999,"REV_AT_EPOCH":2455,"BSTAR":0,"MEAN_MOTION_DOT":6.0e-7,"MEAN_MOTION_DDOT":0},{"OBJECT_NAME":"PALAPA 2","OBJECT_ID":"1977-018A","EPOCH":"2026-03-29T03:07:06.830688","MEAN_MOTION":1.00024454,"ECCENTRICITY":0.0003639,"INCLINATION":8.8197,"RA_OF_ASC_NODE":310.8234,"ARG_OF_PERICENTER":96.9577,"MEAN_ANOMALY":259.9916,"EPHEMERIS_TYPE":0,"CLASSIFICATION_TYPE":"U","NORAD_CAT_ID":9862,"ELEMENT_SET_NO":999,"REV_AT_EPOCH":14230,"BSTAR":0,"MEAN_MOTION_DOT":-6.5e-7,"MEAN_MOTION_DDOT":0},{"OBJECT_NAME":"MOLNIYA 1-36","OBJECT_ID":"1977-021A","EPOCH":"2026-03-28T12:20:23.330688","MEAN_MOTION":2.00600781,"ECCENTRICITY":0.6722523,"INCLINATION":63.6551,"RA_OF_ASC_NODE":118.8415,"ARG_OF_PERICENTER":281.9003,"MEAN_ANOMALY":15.0144,"EPHEMERIS_TYPE":0,"CLASSIFICATION_TYPE":"U","NORAD_CAT_ID":9880,"ELEMENT_SET_NO":999,"REV_AT_EPOCH":25705,"BSTAR":0,"MEAN_MOTION_DOT":-1.035e-5,"MEAN_MOTION_DDOT":0},{"OBJECT_NAME":"GEOS-1","OBJECT_ID":"1977-029A","EPOCH":"2026-03-28T13:00:36.194112","MEAN_MOTION":1.96174671,"ECCENTRICITY":0.6595963,"INCLINATION":27.2588,"RA_OF_ASC_NODE":54.0715,"ARG_OF_PERICENTER":290.3982,"MEAN_ANOMALY":13.3522,"EPHEMERIS_TYPE":0,"CLASSIFICATION_TYPE":"U","NORAD_CAT_ID":9931,"ELEMENT_SET_NO":999,"REV_AT_EPOCH":35027,"BSTAR":0,"MEAN_MOTION_DOT":2.67e-6,"MEAN_MOTION_DDOT":0},{"OBJECT_NAME":"TITAN 3C TRANSTAGE R/B","OBJECT_ID":"1977-034C","EPOCH":"2026-03-29T01:28:26.518656","MEAN_MOTION":0.95554537,"ECCENTRICITY":0.0288707,"INCLINATION":8.8871,"RA_OF_ASC_NODE":295.4472,"ARG_OF_PERICENTER":106.1321,"MEAN_ANOMALY":258.895,"EPHEMERIS_TYPE":0,"CLASSIFICATION_TYPE":"U","NORAD_CAT_ID":10002,"ELEMENT_SET_NO":999,"REV_AT_EPOCH":4438,"BSTAR":0,"MEAN_MOTION_DOT":-1.64e-6,"MEAN_MOTION_DDOT":0},{"OBJECT_NAME":"OPS 9751","OBJECT_ID":"1977-038A","EPOCH":"2026-03-28T15:17:02.436864","MEAN_MOTION":1.00265394,"ECCENTRICITY":0.1305494,"INCLINATION":7.4785,"RA_OF_ASC_NODE":332.0959,"ARG_OF_PERICENTER":130.6717,"MEAN_ANOMALY":44.9517,"EPHEMERIS_TYPE":0,"CLASSIFICATION_TYPE":"U","NORAD_CAT_ID":10016,"ELEMENT_SET_NO":999,"REV_AT_EPOCH":2564,"BSTAR":0,"MEAN_MOTION_DOT":-3.38e-6,"MEAN_MOTION_DDOT":0},{"OBJECT_NAME":"INTELSAT 4A-F4","OBJECT_ID":"1977-041A","EPOCH":"2026-03-28T23:13:20.017920","MEAN_MOTION":0.99446846,"ECCENTRICITY":0.0012318,"INCLINATION":9.056,"RA_OF_ASC_NODE":311.657,"ARG_OF_PERICENTER":278.6041,"MEAN_ANOMALY":279.7053,"EPHEMERIS_TYPE":0,"CLASSIFICATION_TYPE":"U","NORAD_CAT_ID":10024,"ELEMENT_SET_NO":999,"REV_AT_EPOCH":4618,"BSTAR":0,"MEAN_MOTION_DOT":-2.82e-6,"MEAN_MOTION_DDOT":0},{"OBJECT_NAME":"ATLAS CENTAUR R/B","OBJECT_ID":"1977-041B","EPOCH":"2026-03-28T15:08:40.738848","MEAN_MOTION":2.22885792,"ECCENTRICITY":0.7181626,"INCLINATION":21.5785,"RA_OF_ASC_NODE":284.66,"ARG_OF_PERICENTER":82.6255,"MEAN_ANOMALY":21.059,"EPHEMERIS_TYPE":0,"CLASSIFICATION_TYPE":"U","NORAD_CAT_ID":10025,"ELEMENT_SET_NO":999,"REV_AT_EPOCH":39616,"BSTAR":0.0011122,"MEAN_MOTION_DOT":-2.17e-6,"MEAN_MOTION_DDOT":0},{"OBJECT_NAME":"GOES 2","OBJECT_ID":"1977-048A","EPOCH":"2026-03-29T02:56:37.836096","MEAN_MOTION":0.99396723,"ECCENTRICITY":0.0013763,"INCLINATION":6.611,"RA_OF_ASC_NODE":294.0314,"ARG_OF_PERICENTER":51.0787,"MEAN_ANOMALY":283.1193,"EPHEMERIS_TYPE":0,"CLASSIFICATION_TYPE":"U","NORAD_CAT_ID":10061,"ELEMENT_SET_NO":999,"REV_AT_EPOCH":4547,"BSTAR":0,"MEAN_MOTION_DOT":4.9e-7,"MEAN_MOTION_DDOT":0},{"OBJECT_NAME":"RADUGA 3","OBJECT_ID":"1977-071A","EPOCH":"2026-03-29T02:58:37.644384","MEAN_MOTION":1.00324619,"ECCENTRICITY":0.0008366,"INCLINATION":4.323,"RA_OF_ASC_NODE":274.5964,"ARG_OF_PERICENTER":304.0824,"MEAN_ANOMALY":57.2705,"EPHEMERIS_TYPE":0,"CLASSIFICATION_TYPE":"U","NORAD_CAT_ID":10159,"ELEMENT_SET_NO":999,"REV_AT_EPOCH":17624,"BSTAR":0,"MEAN_MOTION_DOT":1.06e-6,"MEAN_MOTION_DDOT":0},{"OBJECT_NAME":"SL-6 R/B(2)","OBJECT_ID":"1977-068D","EPOCH":"2026-03-28T15:08:23.636832","MEAN_MOTION":1.9975064,"ECCENTRICITY":0.7373022,"INCLINATION":62.1747,"RA_OF_ASC_NODE":327.4077,"ARG_OF_PERICENTER":47.15,"MEAN_ANOMALY":354.6377,"EPHEMERIS_TYPE":0,"CLASSIFICATION_TYPE":"U","NORAD_CAT_ID":10167,"ELEMENT_SET_NO":999,"REV_AT_EPOCH":27920,"BSTAR":-0.0048073,"MEAN_MOTION_DOT":-1.193e-5,"MEAN_MOTION_DDOT":0},{"OBJECT_NAME":"SIRIO","OBJECT_ID":"1977-080A","EPOCH":"2026-03-29T03:07:29.294688","MEAN_MOTION":1.00270992,"ECCENTRICITY":0.0005855,"INCLINATION":7.4027,"RA_OF_ASC_NODE":299.7615,"ARG_OF_PERICENTER":149.0947,"MEAN_ANOMALY":220.195,"EPHEMERIS_TYPE":0,"CLASSIFICATION_TYPE":"U","NORAD_CAT_ID":10294,"ELEMENT_SET_NO":999,"REV_AT_EPOCH":11712,"BSTAR":0,"MEAN_MOTION_DOT":-1.27e-6,"MEAN_MOTION_DDOT":0},{"OBJECT_NAME":"EKRAN 2","OBJECT_ID":"1977-092A","EPOCH":"2026-03-29T01:31:26.230656","MEAN_MOTION":1.00268591,"ECCENTRICITY":0.0040309,"INCLINATION":4.4426,"RA_OF_ASC_NODE":275.7511,"ARG_OF_PERICENTER":18.9692,"MEAN_ANOMALY":13.8692,"EPHEMERIS_TYPE":0,"CLASSIFICATION_TYPE":"U","NORAD_CAT_ID":10365,"ELEMENT_SET_NO":999,"REV_AT_EPOCH":13405,"BSTAR":0,"MEAN_MOTION_DOT":-3.25e-6,"MEAN_MOTION_DDOT":0},{"OBJECT_NAME":"MOLNIYA 3-8","OBJECT_ID":"1977-105A","EPOCH":"2026-03-28T09:28:52.396032","MEAN_MOTION":2.00539571,"ECCENTRICITY":0.67253894,"INCLINATION":63.7367,"RA_OF_ASC_NODE":184.8482,"ARG_OF_PERICENTER":277.4248,"MEAN_ANOMALY":16.4619,"EPHEMERIS_TYPE":0,"CLASSIFICATION_TYPE":"U","NORAD_CAT_ID":10455,"ELEMENT_SET_NO":999,"REV_AT_EPOCH":35482,"BSTAR":0,"MEAN_MOTION_DOT":1.178e-5,"MEAN_MOTION_DDOT":0},{"OBJECT_NAME":"SL-6 R/B(2)","OBJECT_ID":"1977-105E","EPOCH":"2026-03-20T10:24:54.334080","MEAN_MOTION":1.97303906,"ECCENTRICITY":0.6952684,"INCLINATION":63.8926,"RA_OF_ASC_NODE":224.2357,"ARG_OF_PERICENTER":280.1958,"MEAN_ANOMALY":13.8705,"EPHEMERIS_TYPE":0,"CLASSIFICATION_TYPE":"U","NORAD_CAT_ID":10485,"ELEMENT_SET_NO":999,"REV_AT_EPOCH":34840,"BSTAR":0,"MEAN_MOTION_DOT":7.49e-6,"MEAN_MOTION_DDOT":0},{"OBJECT_NAME":"METEOSAT-1","OBJECT_ID":"1977-108A","EPOCH":"2026-03-29T02:50:03.689664","MEAN_MOTION":1.00299465,"ECCENTRICITY":0.0010921,"INCLINATION":5.2779,"RA_OF_ASC_NODE":282.0671,"ARG_OF_PERICENTER":89.2845,"MEAN_ANOMALY":232.2546,"EPHEMERIS_TYPE":0,"CLASSIFICATION_TYPE":"U","NORAD_CAT_ID":10489,"ELEMENT_SET_NO":999,"REV_AT_EPOCH":13640,"BSTAR":0,"MEAN_MOTION_DOT":7.0e-7,"MEAN_MOTION_DDOT":0},{"OBJECT_NAME":"INTELSAT 4A-F3","OBJECT_ID":"1978-002A","EPOCH":"2026-03-28T21:36:56.297376","MEAN_MOTION":0.99917819,"ECCENTRICITY":0.0004168,"INCLINATION":9.1449,"RA_OF_ASC_NODE":313.194,"ARG_OF_PERICENTER":315.9908,"MEAN_ANOMALY":238.2559,"EPHEMERIS_TYPE":0,"CLASSIFICATION_TYPE":"U","NORAD_CAT_ID":10557,"ELEMENT_SET_NO":999,"REV_AT_EPOCH":4794,"BSTAR":0,"MEAN_MOTION_DOT":-1.27e-6,"MEAN_MOTION_DDOT":0},{"OBJECT_NAME":"IUE","OBJECT_ID":"1978-012A","EPOCH":"2026-03-28T05:28:13.963296","MEAN_MOTION":1.0006548,"ECCENTRICITY":0.1461462,"INCLINATION":36.9319,"RA_OF_ASC_NODE":289.6489,"ARG_OF_PERICENTER":266.0177,"MEAN_ANOMALY":288.6302,"EPHEMERIS_TYPE":0,"CLASSIFICATION_TYPE":"U","NORAD_CAT_ID":10637,"ELEMENT_SET_NO":999,"REV_AT_EPOCH":12826,"BSTAR":0,"MEAN_MOTION_DOT":3.8e-7,"MEAN_MOTION_DDOT":0},{"OBJECT_NAME":"ATLAS CENTAUR R/B","OBJECT_ID":"1978-002B","EPOCH":"2026-03-29T01:52:44.897952","MEAN_MOTION":2.21861984,"ECCENTRICITY":0.7166534,"INCLINATION":21.8918,"RA_OF_ASC_NODE":7.0094,"ARG_OF_PERICENTER":125.9766,"MEAN_ANOMALY":0.7092,"EPHEMERIS_TYPE":0,"CLASSIFICATION_TYPE":"U","NORAD_CAT_ID":10722,"ELEMENT_SET_NO":999,"REV_AT_EPOCH":28283,"BSTAR":0.0014472,"MEAN_MOTION_DOT":-1.6e-7,"MEAN_MOTION_DDOT":0},{"OBJECT_NAME":"INTELSAT 4A-F6","OBJECT_ID":"1978-035A","EPOCH":"2026-03-29T00:00:42.432768","MEAN_MOTION":1.00285181,"ECCENTRICITY":0.0008139,"INCLINATION":8.9261,"RA_OF_ASC_NODE":312.2131,"ARG_OF_PERICENTER":320.4093,"MEAN_ANOMALY":54.8742,"EPHEMERIS_TYPE":0,"CLASSIFICATION_TYPE":"U","NORAD_CAT_ID":10778,"ELEMENT_SET_NO":999,"REV_AT_EPOCH":12136,"BSTAR":0,"MEAN_MOTION_DOT":-3.05e-6,"MEAN_MOTION_DDOT":0},{"OBJECT_NAME":"ATLAS CENTAUR R/B","OBJECT_ID":"1978-035B","EPOCH":"2026-03-28T20:08:29.038272","MEAN_MOTION":2.22750003,"ECCENTRICITY":0.7184894,"INCLINATION":21.9552,"RA_OF_ASC_NODE":34.3175,"ARG_OF_PERICENTER":195.9792,"MEAN_ANOMALY":116.3919,"EPHEMERIS_TYPE":0,"CLASSIFICATION_TYPE":"U","NORAD_CAT_ID":10779,"ELEMENT_SET_NO":999,"REV_AT_EPOCH":39010,"BSTAR":0.00098496,"MEAN_MOTION_DOT":-1.1e-6,"MEAN_MOTION_DDOT":0},{"OBJECT_NAME":"OPS 8790","OBJECT_ID":"1978-038A","EPOCH":"2026-03-29T02:56:45.324384","MEAN_MOTION":1.00488659,"ECCENTRICITY":0.0015793,"INCLINATION":3.7173,"RA_OF_ASC_NODE":323.3662,"ARG_OF_PERICENTER":303.7704,"MEAN_ANOMALY":1.4826,"EPHEMERIS_TYPE":0,"CLASSIFICATION_TYPE":"U","NORAD_CAT_ID":10787,"ELEMENT_SET_NO":999,"REV_AT_EPOCH":2445,"BSTAR":0,"MEAN_MOTION_DOT":1.14e-6,"MEAN_MOTION_DDOT":0},{"OBJECT_NAME":"YURI (BS)","OBJECT_ID":"1978-039A","EPOCH":"2026-03-29T03:04:07.116960","MEAN_MOTION":1.00202484,"ECCENTRICITY":0.0017797,"INCLINATION":5.6721,"RA_OF_ASC_NODE":284.7894,"ARG_OF_PERICENTER":331.3197,"MEAN_ANOMALY":40.2815,"EPHEMERIS_TYPE":0,"CLASSIFICATION_TYPE":"U","NORAD_CAT_ID":10792,"ELEMENT_SET_NO":999,"REV_AT_EPOCH":11796,"BSTAR":0,"MEAN_MOTION_DOT":0,"MEAN_MOTION_DDOT":0}]
